SES-5                   
1 38652U 12036A   24165.04840904  .00000040  00000+0  00000+0 0  9995
2 38652   0.0410 313.4833 0001841 133.0112 197.7555  1.00269901 43702
INTELSAT 20 (IS-20)     
1 38740U 12043A   24164.87271681 -.00000018  00000+0  00000+0 0  9997
2 38740   0.0044  29.9735 0001551 149.7417 104.6352  1.00270679 43383
HYLAS 2                 
1 38741U 12043B   24165.03799598 -.00000255  00000+0  00000+0 0  9992
2 38741   0.5269  90.2169 0000904 338.1416 349.6591  1.00273429 43498
INTELSAT 21 (IS-21)     
1 38749U 12045A   24164.77819745 -.00000279  00000+0  00000+0 0  9995
2 38749   0.0185 325.1996 0001663 128.5161  30.0110  1.00270738 43169
ASTRA 2F                
1 38778U 12051A   24164.86891308  .00000156  00000+0  00000+0 0  9992
2 38778   0.0871 258.4334 0001784 279.0300  65.2048  1.00273856 33767
GSAT-10                 
1 38779U 12051B   24164.60394674 -.00000160  00000+0  00000+0 0  9995
2 38779   0.0044   2.9003 0000939 351.7459 207.1677  1.00272009 42741
INTELSAT 23 (IS-23)     
1 38867U 12057A   24165.15535478 -.00000278  00000+0  00000+0 0  9999
2 38867   0.0325 242.6896 0001019 150.1125 232.0922  1.00270937 42743
BEIDOU-2 G6             
1 38953U 12059A   24164.84910384 -.00000171  00000+0  00000+0 0  9997
2 38953   2.5497  80.5396 0009910 315.7442 255.0903  1.00273789 42549
LUCH-5B                 
1 38977U 12061A   24164.42871352 -.00000134  00000+0  00000+0 0  9990
2 38977   8.8791  56.7514 0003629  86.9907 255.5295  1.00272065 42233
YAMAL 300K              
1 38978U 12061B   24164.55666238  .00000076  00000+0  00000+0 0  9994
2 38978   0.0176  15.7184 0000188 302.5062 326.4794  1.00273875 42264
STAR ONE C3             
1 38991U 12062A   24164.84633281 -.00000243  00000+0  00000+0 0  9991
2 38991   0.0167 323.0944 0001914 146.6293  21.6180  1.00269939 42392
EUTELSAT 21B            
1 38992U 12062B   24164.93035465  .00000137  00000+0  00000+0 0  9993
2 38992   0.0669 348.1160 0002897  93.2426 176.9234  1.00274904 42464
ECHOSTAR 16             
1 39008U 12065A   24165.02063341 -.00000275  00000+0  00000+0 0  9994
2 39008   0.0174  15.8514 0002197  72.6072 119.2830  1.00270872 42446
CHINASAT 12 (ZX 12)     
1 39017U 12067A   24164.87867604 -.00000201  00000+0  00000+0 0  9991
2 39017   0.0149  32.7950 0002901  46.5878 226.1032  1.00270980 42146
EUTELSAT 70B            
1 39020U 12069A   24164.92480027 -.00000038  00000+0  00000+0 0  9991
2 39020   0.0621 348.6961 0003519  86.2078 230.2640  1.00273630 42141
YAMAL 402               
1 39022U 12070A   24164.91924568  .00000092  00000+0  00000+0 0  9996
2 39022   0.0298 101.5967 0003614 337.8897 208.0527  1.00272646 42036
SKYNET 5D               
1 39034U 12075A   24164.91924568  .00000105  00000+0  00000+0 0  9999
2 39034   0.0664 345.0594 0003663 107.7251 192.6516  1.00274528 41798
MEXSAT 3                
1 39035U 12075B   24164.61595685 -.00000021  00000+0  00000+0 0  9999
2 39035   0.0163  56.7910 0001177  54.8577 256.7347  1.00278556 41814
TDRS 11                 
1 39070U 13004A   24164.84702278  .00000084  00000+0  00000+0 0  9992
2 39070   2.7443  11.5488 0006277  50.4099 330.1743  1.00272994 39330
AMAZONAS 3              
1 39078U 13006A   24165.02028619 -.00000276  00000+0  00000+0 0  9997
2 39078   0.0435 240.3040 0002255 238.7941  89.0104  1.00269139 41606
AZERSPACE 1             
1 39079U 13006B   24164.88320024  .00000139  00000+0  00000+0 0  9993
2 39079   0.0160 326.3153 0001856 142.7738 156.5369  1.00273672 41448
SBIRS GEO-2 (USA 241)   
1 39120U 13011A   24164.85372973 -.00000252  00000+0  00000+0 0  9990
2 39120   2.9745  47.1391 0001800  31.2459  92.6099  1.00271289 41170
EUTELSAT 117 WEST A     
1 39122U 13012A   24164.98660378 -.00000006  00000+0  00000+0 0  9993
2 39122   0.0112   3.9866 0002744  82.0142  54.1574  1.00271181 41102
ANIK G1                 
1 39127U 13014A   24165.17757814 -.00000067  00000+0  00000+0 0  9991
2 39127   0.0283 282.7206 0001227 151.8685 144.0182  1.00271539 40888
CHINASAT 11 (ZX 11)     
1 39157U 13020A   24164.83799250 -.00000285  00000+0  00000+0 0  9995
2 39157   0.0214  72.0343 0002499 269.3376 319.8581  1.00273187 40539
EUTELSAT 7B             
1 39163U 13022A   24164.93591181  .00000054  00000+0  00000+0 0  9991
2 39163   0.0693  17.2121 0004531  19.9543 208.4826  1.00272615 40604
WGS F5 (USA 243)        
1 39168U 13024A   24165.15535478 -.00000277  00000+0  00000+0 0  9998
2 39168   0.0175  26.1557 0000218 298.2566 300.9801  1.00271859 40465
SES-6                   
1 39172U 13026A   24165.14979747 -.00000254  00000+0  00000+0 0  9990
2 39172   0.0304 313.2437 0002202 125.1553 196.9690  1.00273949 40360
IRNSS-1A                
1 39199U 13034A   24159.63635583  .00000053  00000+0  00000+0 0  9998
2 39199  34.0569  74.5929 0017551 182.5884 283.4310  1.00269402 39952
MUOS-2                  
1 39206U 13036A   24165.04061840  .00000070  00000+0  00000+0 0  9999
2 39206   3.6203  40.5276 0051140 177.3399 241.5335  1.00271584 39946
ALPHASAT                
1 39215U 13038A   24164.00746203  .00000136  00000+0  00000+0 0  9992
2 39215   2.8920   7.5327 0001884  78.8549 201.9634  1.00274199 36646
INSAT-3D                
1 39216U 13038B   24165.06854865 -.00000149  00000+0  00000+0 0  9999
2 39216   0.0349 114.3514 0000822 147.8831 106.4100  1.00271234 39949
WGS F6 (USA 244)        
1 39222U 13041A   24164.72132748  .00000095  00000+0  00000+0 0  9990
2 39222   0.0150   8.4122 0000382 327.2454  50.3607  1.00270864 38687
ES'HAIL 1               
1 39233U 13044A   24164.86671215  .00000149  00000+0  00000+0 0  9997
2 39233   0.0505  15.6555 0002421  59.8884 163.6213  1.00272587 39264
GSAT-7                  
1 39234U 13044B   24164.16032553 -.00000074  00000+0  00000+0 0  9995
2 39234   0.0636  97.0282 0005695 181.2312 114.4287  1.00272228 37954
AMOS-4                  
1 39237U 13045A   24164.87271681  .00000013  00000+0  00000+0 0  9996
2 39237   0.0131  70.9469 0001970 336.1216 233.7853  1.00271031 39597
AEHF-3 (USA 246)        
1 39256U 13050A   24164.83052856  .00000139  00000+0  00000+0 0  9999
2 39256   3.4657  72.8717 0045623 179.9749 152.7302  1.00275085 38302
ASTRA 2E                
1 39285U 13056A   24164.86891267  .00000156  00000+0  00000+0 0  9996
2 39285   0.0778  44.5698 0002562  30.1077 168.2864  1.00274194 39072
FM-6                    
1 39360U 13058A   24164.69504828 -.00000011  00000+0  00000+0 0  9998
2 39360   0.0027 359.2688 0000485 300.0726  96.2084  1.00269206 38699
RADUGA-1M 3             
1 39375U 13062A   24165.01130308  .00000161  00000+0  00000+0 0  9999
2 39375   4.0829  81.3396 0003255 214.6819   4.8395  1.00272926 38760
SES-8                   
1 39460U 13071A   24164.84354944 -.00000264  00000+0  00000+0 0  9993
2 39460   0.0315 275.1964 0002731 168.0056 217.1122  1.00271061 37066
INMARSAT 5-F1           
1 39476U 13073A   24164.44436972  .00000032  00000+0  00000+0 0  9992
2 39476   0.0177   9.6595 0000127 165.0434 309.1220  1.00272368 38224
TKSAT-1 (TUPAC KATARI)  
1 39481U 13075A   24164.84398321 -.00000188  00000+0  00000+0 0  9992
2 39481   0.0411 144.3732 0002390 280.8658  53.0317  1.00271218 38235
EXPRESS-AM5             
1 39487U 13077A   24164.74599907 -.00000275  00000+0  00000+0 0  9999
2 39487   0.0185 321.9827 0000185 111.5855 236.5732  1.00272047 38999
GSAT-14                 
1 39498U 14001A   24164.01720855 -.00000074  00000+0  00000+0 0  9994
2 39498   0.0045  65.2403 0001747 210.8588  64.9161  1.00271792 38013
THAICOM 6               
1 39500U 14002A   24164.16119576 -.00000117  00000+0  00000+0 0  9995
2 39500   0.0462 136.2640 0003094 351.2513 269.9683  1.00271375 38087
TDRS 12                 
1 39504U 14004A   24164.85312058 -.00000266  00000+0  00000+0 0  9992
2 39504   3.5530   3.3187 0003599 180.2340 344.2533  1.00267175 36917
ABS-2                   
1 39508U 14006A   24164.87615240 -.00000080  00000+0  00000+0 0  9993
2 39508   0.0420  79.9899 0003223   0.2525 211.7709  1.00272111 37910
ATHENA-FIDUS            
1 39509U 14006B   24164.87660745  .00000160  00000+0  00000+0 0  9992
2 39509   0.0125 342.9500 0001189  84.0435 188.0484  1.00270649 37712
TURKSAT 4A              
1 39522U 14007A   24164.91924568  .00000152  00000+0  00000+0 0  9990
2 39522   0.0358 266.6367 0000381 131.4347 236.5411  1.00272685 37610
EXPRESS-AT1             
1 39612U 14010A   24164.91369150  .00000084  00000+0  00000+0 0  9998
2 39612   0.0159 309.3354 0000287  52.5111 284.7936  1.00272845 37454
EXPRESS-AT2             
1 39613U 14010B   24164.90743764 -.00000275  00000+0  00000+0 0  9998
2 39613   0.0169 315.4270 0000304   4.6690  48.1383  1.00272274 37130
AMAZONAS 4A             
1 39616U 14011A   24164.84659389 -.00000246  00000+0  00000+0 0  9992
2 39616   0.0573 165.8025 0003345 287.9169  38.7063  1.00273321 37349
ASTRA 5B                
1 39617U 14011B   24164.93035465  .00000143  00000+0  00000+0 0  9991
2 39617   0.0498 325.3714 0002137  90.0659 204.6951  1.00272152 37306
IRNSS-1B                
1 39635U 14017A   24157.84007988  .00000105  00000+0  00000+0 0  9996
2 39635  29.0053 253.0198 0023385 184.0764 175.2577  1.00279488 37357
LUCH-5V                 
1 39727U 14023A   24165.17271569 -.00000261  00000+0  00000+0 0  9992
2 39727   3.2883  76.0796 0002088  49.7827 292.9882  1.00268298555140
KAZSAT-3                
1 39728U 14023B   24164.86715985  .00000066  00000+0  00000+0 0  9995
2 39728   0.0332  94.3314 0001176  53.9758 124.0422  1.00274708 35085
EUTELSAT 3B             
1 39773U 14030A   24165.04840904  .00000026  00000+0  00000+0 0  9990
2 39773   0.0616 349.2602 0003019 119.6281 173.4947  1.00269844 36852
ASIASAT 8 (AMOS-7)      
1 40107U 14046A   24164.86047941 -.00000027  00000+0  00000+0 0  9991
2 40107   0.0416 121.2417 0001838 321.6309 124.6780  1.00272600 94781
